[{"OBJECT_NAME":"STARLINK-2065","OBJECT_ID":"2021-012BE","EPOCH":"2026-03-09T06:02:29.895360","MEAN_MOTION":15.6876286,"ECCENTRICITY":0.0006678,"INCLINATION":53.1532,"RA_OF_ASC_NODE":11.1448,"ARG_OF_PERICENTER":48.9965,"MEAN_ANOMALY":311.1629,"EPHEMERIS_TYPE":0,"CLASSIFICATION_TYPE":"U","NORAD_CAT_ID":47672,"ELEMENT_SET_NO":999,"REV_AT_EPOCH":28079,"BSTAR":0.00096339732,"MEAN_MOTION_DOT":0.00113313,"MEAN_MOTION_DDOT":0},{"OBJECT_NAME":"STARLINK-11337 [DTC]","OBJECT_ID":"2024-209B","EPOCH":"2026-03-09T06:08:51.204480","MEAN_MOTION":15.6972062,"ECCENTRICITY":8.19e-5,"INCLINATION":53.1569,"RA_OF_ASC_NODE":13.1177,"ARG_OF_PERICENTER":141.8575,"MEAN_ANOMALY":218.2501,"EPHEMERIS_TYPE":0,"CLASSIFICATION_TYPE":"U","NORAD_CAT_ID":61940,"ELEMENT_SET_NO":999,"REV_AT_EPOCH":7665,"BSTAR":0.0019596493,"MEAN_MOTION_DOT":0.00244045,"MEAN_MOTION_DDOT":0}]
