STARLINK-2065           
1 47672U 21012BE  26068.25173490  .00113313  00000+0  96340-3 0  9991
2 47672  53.1532  11.1448 0006678  48.9965 311.1629 15.68762860280792
STARLINK-11337 [DTC]    
1 61940U 24209B   26068.25614820  .00244045  00000+0  19596-2 0  9997
2 61940  53.1569  13.1177 0000819 141.8575 218.2501 15.69720620 76651
